[{"OBJECT_NAME":"TEVEL2-7","OBJECT_ID":"2025-052AE","EPOCH":"2026-03-09T15:52:01.887744","MEAN_MOTION":15.28414096,"ECCENTRICITY":0.00081048,"INCLINATION":97.4054,"RA_OF_ASC_NODE":324.3041,"ARG_OF_PERICENTER":124.683,"MEAN_ANOMALY":235.5175,"EPHEMERIS_TYPE":0,"CLASSIFICATION_TYPE":"U","NORAD_CAT_ID":63238,"ELEMENT_SET_NO":999,"REV_AT_EPOCH":5480,"BSTAR":0.00069668191,"MEAN_MOTION_DOT":0.00019244,"MEAN_MOTION_DDOT":0},{"OBJECT_NAME":"STARLINK-36470","OBJECT_ID":"2026-002Q","EPOCH":"2026-03-09T01:54:12.944736","MEAN_MOTION":15.27587547,"ECCENTRICITY":0.00018639,"INCLINATION":43.0005,"RA_OF_ASC_NODE":328.875,"ARG_OF_PERICENTER":264.6506,"MEAN_ANOMALY":95.4133,"EPHEMERIS_TYPE":0,"CLASSIFICATION_TYPE":"U","NORAD_CAT_ID":67319,"ELEMENT_SET_NO":999,"REV_AT_EPOCH":1104,"BSTAR":0.0013043973,"MEAN_MOTION_DOT":0.00035815,"MEAN_MOTION_DDOT":0}]
